OBJECT_NAME,OBJECT_ID,EPOCH,MEAN_MOTION,ECCENTRICITY,INCLINATION,RA_OF_ASC_NODE,ARG_OF_PERICENTER,MEAN_ANOMALY,EPHEMERIS_TYPE,CLASSIFICATION_TYPE,NORAD_CAT_ID,ELEMENT_SET_NO,REV_AT_EPOCH,BSTAR,MEAN_MOTION_DOT,MEAN_MOTION_DDOT
SWARM A,2013-067B,2026-06-07T19:10:23.604384,15.50765879,.0003004,87.3326,59.7282,92.0820,268.0785,0,U,39452,999,70479,.19119E-3,.11044E-3,0
SWARM C,2013-067C,2026-06-07T19:10:13.887840,15.50768501,.0002972,87.3326,58.3094,92.1418,268.0183,0,U,39453,999,70475,.19412E-3,.11214E-3,0
BRITE-CA1 (TORONTO),2014-033L,2026-06-07T07:43:14.807424,14.72663858,.0077511,97.9728,287.4322,309.1415,50.2921,0,U,40020,999,64076,.13667E-3,.858E-5,0
OCO 2,2014-035A,2026-06-07T17:56:43.656000,14.57103989,.0001478,98.2015,100.1847,87.5684,272.5683,0,U,40059,999,63467,.12596E-3,.522E-5,0
BRITE-PL2 (HEWELIUSZ),2014-049B,2026-06-07T06:19:50.180736,14.94560188,.0015105,97.9087,270.1883,138.2185,222.0191,0,U,40119,999,63996,.28361E-3,.3014E-4,0
MMS 1,2015-011A,2026-06-07T22:00:03.000096,0.28338637,.8341754,72.1906,348.8953,167.1989,73.4026,0,U,40482,999,138,0,-.12E-5,0
MMS 2,2015-011B,2026-06-07T22:00:03.000096,0.28338644,.8342533,72.1908,348.8975,167.2045,73.3910,0,U,40483,999,138,0,-.12E-5,0
MMS 3,2015-011C,2026-06-07T22:00:03.000096,0.28338615,.8341725,72.1938,348.9020,167.1990,73.3875,0,U,40484,999,138,0,-.12E-5,0
MMS 4,2015-011D,2026-06-07T22:00:03.000096,0.28339179,.8341646,72.1903,348.8976,167.2054,73.3736,0,U,40485,999,138,0,-.12E-5,0
ASTROSAT,2015-052A,2026-06-07T04:51:10.831680,14.82491593,.0008555,5.9948,227.2355,254.2617,105.6567,0,U,40930,999,57834,.14026E-3,.1825E-4,0
DAMPE,2015-078A,2026-06-07T19:41:49.159968,15.30759674,.0013667,97.4563,164.2420,105.8279,254.4469,0,U,41173,999,58311,.35066E-4,.967E-5,0
PISAT,2016-059B,2026-06-07T17:51:22.312800,14.68968105,.0027737,97.8178,159.6027,234.0014,125.8621,0,U,41784,999,51835,.19762E-3,.1117E-4,0
HXMT (HUIYAN),2017-034A,2026-06-07T15:53:19.743648,15.18409983,.0030166,43.0130,236.0784,84.2409,276.1878,0,U,42758,999,49621,.27031E-3,.5487E-4,0
FLYING LAPTOP,2017-042G,2026-06-07T20:28:41.610432,15.01086338,.0019102,97.4657,314.7486,152.1285,208.0967,0,U,42831,999,48505,.33092E-3,.4192E-4,0
ZHANGHENG 1-01 (CSES-1),2018-015C,2026-06-07T20:40:23.467008,15.20694673,.0017189,97.6869,324.3355,301.5194,58.4361,0,U,43194,999,46322,.36132E-3,.7901E-4,0
SALSAT,2020-068K,2026-06-07T17:25:36.863040,15.29663376,.0008931,97.8853,161.2159,346.1637,13.9356,0,U,46495,999,31391,.29512E-3,.8408E-4,0
IXPE,2021-121A,2026-06-07T20:00:04.000032,15.10169803,.0006991,0.2304,27.9407,299.2082,139.9896,0,U,49954,999,582,.92615E-3,.16539E-3,0
SMILE,2026-109A,2026-05-24T15:40:35.120928,14.57062785,.00091232,70.0007,229.2745,259.5159,100.4951,0,U,69123,999,80,-.42378883E-3,-.1976E-4,0
