SWARM A                 
1 39452U 13067B   26158.79888431  .00011044  00000+0  19119-3 0  9993
2 39452  87.3326  59.7282 0003004  92.0820 268.0785 15.50765879704791
SWARM C                 
1 39453U 13067C   26158.79877185  .00011214  00000+0  19412-3 0  9993
2 39453  87.3326  58.3094 0002972  92.1418 268.0183 15.50768501704758
BRITE-CA1 (TORONTO)     
1 40020U 14033L   26158.32169916  .00000858  00000+0  13667-3 0  9992
2 40020  97.9728 287.4322 0077511 309.1415  50.2921 14.72663858640764
OCO 2                   
1 40059U 14035A   26158.74772750  .00000522  00000+0  12596-3 0  9996
2 40059  98.2015 100.1847 0001478  87.5684 272.5683 14.57103989634670
BRITE-PL2 (HEWELIUSZ)   
1 40119U 14049B   26158.26377524  .00003014  00000+0  28361-3 0  9991
2 40119  97.9087 270.1883 0015105 138.2185 222.0191 14.94560188639962
MMS 1                   
1 40482U 15011A   26158.91670139 -.00000120  00000+0  00000+0 0  9996
2 40482  72.1906 348.8953 8341754 167.1989  73.4026  0.28338637  1382
MMS 2                   
1 40483U 15011B   26158.91670139 -.00000120  00000+0  00000+0 0  9997
2 40483  72.1908 348.8975 8342533 167.2045  73.3910  0.28338644  1388
MMS 3                   
1 40484U 15011C   26158.91670139 -.00000120  00000+0  00000+0 0  9998
2 40484  72.1938 348.9020 8341725 167.1990  73.3875  0.28338615  1382
MMS 4                   
1 40485U 15011D   26158.91670139 -.00000120  00000+0  00000+0 0  9999
2 40485  72.1903 348.8976 8341646 167.2054  73.3736  0.28339179  1380
ASTROSAT                
1 40930U 15052A   26158.20220870  .00001825  00000+0  14026-3 0  9993
2 40930   5.9948 227.2355 0008555 254.2617 105.6567 14.82491593578342
DAMPE                   
1 41173U 15078A   26158.82070787  .00000967  00000+0  35066-4 0  9993
2 41173  97.4563 164.2420 0013667 105.8279 254.4469 15.30759674583115
PISAT                   
1 41784U 16059B   26158.74400825  .00001117  00000+0  19762-3 0  9994
2 41784  97.8178 159.6027 0027737 234.0014 125.8621 14.68968105518351
HXMT (HUIYAN)           
1 42758U 17034A   26158.66203407  .00005487  00000+0  27031-3 0  9990
2 42758  43.0130 236.0784 0030166  84.2409 276.1878 15.18409983496211
FLYING LAPTOP           
1 42831U 17042G   26158.85325938  .00004192  00000+0  33092-3 0  9992
2 42831  97.4657 314.7486 0019102 152.1285 208.0967 15.01086338485057
ZHANGHENG 1-01 (CSES-1) 
1 43194U 18015C   26158.86138272  .00007901  00000+0  36132-3 0  9999
2 43194  97.6869 324.3355 0017189 301.5194  58.4361 15.20694673463229
SALSAT                  
1 46495U 20068K   26158.72612110  .00008408  00000+0  29512-3 0  9997
2 46495  97.8853 161.2159 0008931 346.1637  13.9356 15.29663376313918
IXPE                    
1 49954U 21121A   26158.83337963  .00016539  00000+0  92615-3 0  9991
2 49954   0.2304  27.9407 0006991 299.2082 139.9896 15.10169803  5822
SMILE                   
1 69123U 26109A   26144.65318427 -.00001976  00000+0 -42379-3 0  9994
2 69123  70.0007 229.2745 0009123 259.5159 100.4951 14.57062785   802
